[{"OBJECT_NAME":"SVYATOBOR 1 (RS60S)","OBJECT_ID":"2023-091X","EPOCH":"2026-03-09T23:06:11.081664","MEAN_MOTION":15.2482043,"ECCENTRICITY":0.00111996,"INCLINATION":97.5206,"RA_OF_ASC_NODE":132.3062,"ARG_OF_PERICENTER":84.4206,"MEAN_ANOMALY":275.8308,"EPHEMERIS_TYPE":0,"CLASSIFICATION_TYPE":"U","NORAD_CAT_ID":57187,"ELEMENT_SET_NO":999,"REV_AT_EPOCH":14918,"BSTAR":0.00046454276,"MEAN_MOTION_DOT":0.00011484,"MEAN_MOTION_DDOT":0},{"OBJECT_NAME":"STARLINK-32096","OBJECT_ID":"2024-086S","EPOCH":"2026-03-09T08:52:55.696512","MEAN_MOTION":15.27574249,"ECCENTRICITY":0.00012315,"INCLINATION":43.0042,"RA_OF_ASC_NODE":61.6649,"ARG_OF_PERICENTER":239.2604,"MEAN_ANOMALY":120.8127,"EPHEMERIS_TYPE":0,"CLASSIFICATION_TYPE":"U","NORAD_CAT_ID":59698,"ELEMENT_SET_NO":999,"REV_AT_EPOCH":10406,"BSTAR":-2.5208181e-5,"MEAN_MOTION_DOT":-9.56e-6,"MEAN_MOTION_DDOT":0}]
